{
 "type": "FeatureCollection",
 "features": [
  {
   "type": "Feature",
   "properties": {
    "name": "Dnipro-Buh liman clip",
    "refid": 6033000138,
    "n_source_points": 17,
    "buffer_deg": 0.02,
    "min_lon_clip": 31.5,
    "source": "config/dnipro_estuary_points.csv (operator landmarks)"
   },
   "geometry": {
    "type": "Polygon",
    "coordinates": [
     [
      [
       32.39643921793361,
       46.449894557450676
      ],
      [
       32.394689974397764,
       46.449416744241454
      ],
      [
       32.392904643533825,
       46.44909932950194
      ],
      [
       32.39109790146853,
       46.448944922506996
      ],
      [
       32.38928460033716,
       46.44895479254327
      ],
      [
       32.03585692238764,
       46.466921480123
      ],
      [
       32.03470593425195,
       46.467013364679566
      ],
      [
       31.55109661220148,
       46.51970767709983
      ],
      [
       31.549280551442973,
       46.51999050757058
      ],
      [
       31.547498123157002,
       46.52043885917275
      ],
      [
       31.54576438026128,
       46.52104894549886
      ],
      [
       31.544093964516893,
       46.52181561426351
      ],
      [
       31.542500982876096,
       46.52273239081528
      ],
      [
       31.54099888834664,
       46.52379153281631
      ],
      [
       31.5,
       46.555618351108286
      ],
      [
       31.5,
       46.7011205517897
      ],
      [
       31.868140690631215,
       47.023425842790765
      ],
      [
       31.869731142191736,
       47.02468181054471
      ],
      [
       31.87144053075645,
       47.02577037928399
      ],
      [
       31.87325130521603,
       47.02668037215311
      ],
      [
       31.875144873483702,
       47.027402445820385
      ],
      [
       31.877101793389105,
       47.02792918641039
      ],
      [
       31.879101972300326,
       47.02825518562575
      ],
      [
       31.88112487342458,
       47.028377096276714
      ],
      [
       31.985041582994217,
       47.029365007322596
      ],
      [
       31.98689601853348,
       47.029296542638306
      ],
      [
       31.98873612595955,
       47.02905649422075
      ],
      [
       31.990546063702123,
       47.02864692865789
      ],
      [
       31.992310249923086,
       47.028071371918706
      ],
      [
       31.99401349666131,
       47.02733477899789
      ],
      [
       31.9956411405865,
       47.026443491258114
      ],
      [
       31.997179169236485,
       47.025405181836945
      ],
      [
       31.998614341651173,
       47.02422878958843
      ],
      [
       31.999934302364572,
       47.022924442128065
      ],
      [
       32.47199959279493,
       46.51102653108218
      ],
      [
       32.47328798282629,
       46.509480013496876
      ],
      [
       32.4744143975735,
       46.50781182425946
      ],
      [
       32.47536742739709,
       46.50603886073194
      ],
      [
       32.476137418901885,
       46.50417908155228
      ],
      [
       32.47671657271782,
       46.50225132472839
      ],
      [
       32.47709902250103,
       46.50027511682489
      ],
      [
       32.477280894355026,
       46.498270475175296
      ],
      [
       32.47726034607001,
       46.49625770512321
      ],
      [
       32.47703758578293,
       46.494257194346176
      ],
      [
       32.476614869869216,
       46.49228920634549
      ],
      [
       32.47599648008759,
       46.49037367519394
      ],
      [
       32.475188680209435,
       46.48853000362031
      ],
      [
       32.474199652572025,
       46.486776866475935
      ],
      [
       32.473039415198286,
       46.48513202157408
      ],
      [
       32.47171972032261,
       46.48361212981817
      ],
      [
       32.47025393535055,
       46.48223258644074
      ],
      [
       32.46865690745815,
       46.481007365062595
      ],
      [
       32.4669448132025,
       46.47994887615177
      ],
      [
       32.46513499466675,
       46.47906784131579
      ],
      [
       32.398137994666754,
       46.450528841315794
      ],
      [
       32.39643921793361,
       46.449894557450676
      ]
     ]
    ]
   }
  }
 ]
}